{
  "type": "FeatureCollection",
  "features": [
    {
      "type": "Feature",
      "properties": {
        "norad_id": 30553,
        "name": "FENGYUN 1C DEB",
        "group": "fengyun-1c-debris",
        "lat": -10.537143046475148,
        "lon": -110.58605803092094,
        "alt_km": 645.1726681293221,
        "timestamp": "2025-12-03T08:58:46.278739+00:00",
        "meta_object_name": "FENGYUN 1C DEB",
        "meta_object_id": "1999-025AKT",
        "meta_epoch": "2025-12-03T04:51:10.562976",
        "meta_mean_motion": 14.7160039,
        "meta_eccentricity": 0.0021802,
        "meta_inclination": 99.1303,
        "meta_ra_of_asc_node": 70.9355,
        "meta_arg_of_pericenter": 178.8578,
        "meta_mean_anomaly": 181.2679,
        "meta_ephemeris_type": 0,
        "meta_classification_type": "U",
        "meta_norad_cat_id": 30553,
        "meta_element_set_no": 999,
        "meta_rev_at_epoch": 98333,
        "meta_bstar": 0.0048732,
        "meta_mean_motion_dot": 0.00030493,
        "meta_mean_motion_ddot": 0,
        "tle_line1": "1 30553U 99025AKT 25337.20220559  .00030493  00000+0  48732-2 0  9990",
        "tle_line2": "2 30553  99.1303  70.9355 0021802 178.8578 181.2679 14.71600390983330"
      },
      "geometry": {
        "type": "Point",
        "coordinates": [
          -110.58605803092094,
          -10.537143046475148
        ]
      }
    },
    {
      "type": "Feature",
      "properties": {
        "norad_id": 30555,
        "name": "FENGYUN 1C DEB",
        "group": "fengyun-1c-debris",
        "lat": -77.7216726669561,
        "lon": 165.884027826836,
        "alt_km": 806.2117569887496,
        "timestamp": "2025-12-03T08:58:46.278750+00:00",
        "meta_object_name": "FENGYUN 1C DEB",
        "meta_object_id": "1999-025AKV",
        "meta_epoch": "2025-12-03T02:48:58.652064",
        "meta_mean_motion": 14.20717594,
        "meta_eccentricity": 0.0042015,
        "meta_inclination": 98.7588,
        "meta_ra_of_asc_node": 30.7325,
        "meta_arg_of_pericenter": 299.6921,
        "meta_mean_anomaly": 89.2559,
        "meta_ephemeris_type": 0,
        "meta_classification_type": "U",
        "meta_norad_cat_id": 30555,
        "meta_element_set_no": 999,
        "meta_rev_at_epoch": 96799,
        "meta_bstar": 0.0017272,
        "meta_mean_motion_dot": 3.714e-05,
        "meta_mean_motion_ddot": 0,
        "tle_line1": "1 30555U 99025AKV 25337.11734551  .00003714  00000+0  17272-2 0  9995",
        "tle_line2": "2 30555  98.7588  30.7325 0042015 299.6921  89.2559 14.20717594967993"
      },
      "geometry": {
        "type": "Point",
        "coordinates": [
          165.884027826836,
          -77.7216726669561
        ]
      }
    },
    {
      "type": "Feature",
      "properties": {
        "norad_id": 30556,
        "name": "FENGYUN 1C DEB",
        "group": "fengyun-1c-debris",
        "lat": -18.12178148604651,
        "lon": -26.116748503968154,
        "alt_km": 883.2085524621298,
        "timestamp": "2025-12-03T08:58:46.278760+00:00",
        "meta_object_name": "FENGYUN 1C DEB",
        "meta_object_id": "1999-025AKW",
        "meta_epoch": "2025-12-02T23:03:08.722368",
        "meta_mean_motion": 14.01353066,
        "meta_eccentricity": 0.0067695,
        "meta_inclination": 98.7818,
        "meta_ra_of_asc_node": 330.5855,
        "meta_arg_of_pericenter": 265.2518,
        "meta_mean_anomaly": 150.2078,
        "meta_ephemeris_type": 0,
        "meta_classification_type": "U",
        "meta_norad_cat_id": 30556,
        "meta_element_set_no": 999,
        "meta_rev_at_epoch": 96120,
        "meta_bstar": 0.00034874,
        "meta_mean_motion_dot": 4.93e-06,
        "meta_mean_motion_ddot": 0,
        "tle_line1": "1 30556U 99025AKW 25336.96051762  .00000493  00000+0  34874-3 0  9993",
        "tle_line2": "2 30556  98.7818 330.5855 0067695 265.2518 150.2078 14.01353066961203"
      },
      "geometry": {
        "type": "Point",
        "coordinates": [
          -26.116748503968154,
          -18.12178148604651
        ]
      }
    },
    {
      "type": "Feature",
      "properties": {
        "norad_id": 30557,
        "name": "FENGYUN 1C DEB",
        "group": "fengyun-1c-debris",
        "lat": 31.72340914709108,
        "lon": -131.8272761352868,
        "alt_km": 872.4095241838131,
        "timestamp": "2025-12-03T08:58:46.278770+00:00",
        "meta_object_name": "FENGYUN 1C DEB",
        "meta_object_id": "1999-025AKX",
        "meta_epoch": "2025-12-03T03:10:04.215936",
        "meta_mean_motion": 14.10720476,
        "meta_eccentricity": 0.0067633,
        "meta_inclination": 98.9215,
        "meta_ra_of_asc_node": 42.36,
        "meta_arg_of_pericenter": 259.6004,
        "meta_mean_anomaly": 99.7539,
        "meta_ephemeris_type": 0,
        "meta_classification_type": "U",
        "meta_norad_cat_id": 30557,
        "meta_element_set_no": 999,
        "meta_rev_at_epoch": 96165,
        "meta_bstar": 0.0018578,
        "meta_mean_motion_dot": 3.349e-05,
        "meta_mean_motion_ddot": 0,
        "tle_line1": "1 30557U 99025AKX 25337.13199324  .00003349  00000+0  18578-2 0  9996",
        "tle_line2": "2 30557  98.9215  42.3600 0067633 259.6004  99.7539 14.10720476961653"
      },
      "geometry": {
        "type": "Point",
        "coordinates": [
          -131.8272761352868,
          31.72340914709108
        ]
      }
    },
    {
      "type": "Feature",
      "properties": {
        "norad_id": 30558,
        "name": "FENGYUN 1C DEB",
        "group": "fengyun-1c-debris",
        "lat": 55.729682659588796,
        "lon": -46.74887409394949,
        "alt_km": 1463.11591025684,
        "timestamp": "2025-12-03T08:58:46.278781+00:00",
        "meta_object_name": "FENGYUN 1C DEB",
        "meta_object_id": "1999-025AKY",
        "meta_epoch": "2025-11-30T15:16:00.558048",
        "meta_mean_motion": 13.28421345,
        "meta_eccentricity": 0.042304,
        "meta_inclination": 99.467,
        "meta_ra_of_asc_node": 116.5631,
        "meta_arg_of_pericenter": 302.4359,
        "meta_mean_anomaly": 53.651,
        "meta_ephemeris_type": 0,
        "meta_classification_type": "U",
        "meta_norad_cat_id": 30558,
        "meta_element_set_no": 999,
        "meta_rev_at_epoch": 90597,
        "meta_bstar": 0.0035398,
        "meta_mean_motion_dot": 2.593e-05,
        "meta_mean_motion_ddot": 0,
        "tle_line1": "1 30558U 99025AKY 25334.63611757  .00002593  00000+0  35398-2 0  9997",
        "tle_line2": "2 30558  99.4670 116.5631 0423040 302.4359  53.6510 13.28421345905973"
      },
      "geometry": {
        "type": "Point",
        "coordinates": [
          -46.74887409394949,
          55.729682659588796
        ]
      }
    },
    {
      "type": "Feature",
      "properties": {
        "norad_id": 30560,
        "name": "FENGYUN 1C DEB",
        "group": "fengyun-1c-debris",
        "lat": 50.07582920917739,
        "lon": -39.1430934705113,
        "alt_km": 912.7287587903575,
        "timestamp": "2025-12-03T08:58:46.278792+00:00",
        "meta_object_name": "FENGYUN 1C DEB",
        "meta_object_id": "1999-025ALA",
        "meta_epoch": "2025-12-02T22:49:41.539872",
        "meta_mean_motion": 14.17008025,
        "meta_eccentricity": 0.0114561,
        "meta_inclination": 98.6633,
        "meta_ra_of_asc_node": 330.942,
        "meta_arg_of_pericenter": 240.0211,
        "meta_mean_anomaly": 174.2785,
        "meta_ephemeris_type": 0,
        "meta_classification_type": "U",
        "meta_norad_cat_id": 30560,
        "meta_element_set_no": 999,
        "meta_rev_at_epoch": 97230,
        "meta_bstar": 0.00037535,
        "meta_mean_motion_dot": 7.61e-06,
        "meta_mean_motion_ddot": 0,
        "tle_line1": "1 30560U 99025ALA 25336.95117523  .00000761  00000+0  37535-3 0  9990",
        "tle_line2": "2 30560  98.6633 330.9420 0114561 240.0211 174.2785 14.17008025972303"
      },
      "geometry": {
        "type": "Point",
        "coordinates": [
          -39.1430934705113,
          50.07582920917739
        ]
      }
    },
    {
      "type": "Feature",
      "properties": {
        "norad_id": 30561,
        "name": "FENGYUN 1C DEB",
        "group": "fengyun-1c-debris",
        "lat": -16.03327238651599,
        "lon": -17.696847149053365,
        "alt_km": 899.7764240543938,
        "timestamp": "2025-12-03T08:58:46.278802+00:00",
        "meta_object_name": "FENGYUN 1C DEB",
        "meta_object_id": "1999-025ALB",
        "meta_epoch": "2025-12-02T18:33:43.137216",
        "meta_mean_motion": 14.11252978,
        "meta_eccentricity": 0.0060382,
        "meta_inclination": 98.7247,
        "meta_ra_of_asc_node": 339.1902,
        "meta_arg_of_pericenter": 141.8874,
        "meta_mean_anomaly": 31.9656,
        "meta_ephemeris_type": 0,
        "meta_classification_type": "U",
        "meta_norad_cat_id": 30561,
        "meta_element_set_no": 999,
        "meta_rev_at_epoch": 96837,
        "meta_bstar": 0.00040779,
        "meta_mean_motion_dot": 7.06e-06,
        "meta_mean_motion_ddot": 0,
        "tle_line1": "1 30561U 99025ALB 25336.77341594  .00000706  00000+0  40779-3 0  9991",
        "tle_line2": "2 30561  98.7247 339.1902 0060382 141.8874  31.9656 14.11252978968376"
      },
      "geometry": {
        "type": "Point",
        "coordinates": [
          -17.696847149053365,
          -16.03327238651599
        ]
      }
    }
  ]
}